STARLINK-2154
1 27741C 21017V   21325.14148237  .00007720  00000-0  51717-3 0  3250
2 27741  53.0544  57.6059 0001668  65.1988 346.3003 15.06394161    12
